     2.100          NAVIGATION                              RINEX VERSION / TYPE
fic2rin                                 02/02/2015 00:16:56 PGM / RUN BY / DATE
                                                            END OF HEADER
 6 15  2  1 12  0  0.0  .687548890710D-04  .115960574476D-10  .000000000000D+00
     .440000000000D+02 -.203125000000D+02  .443911347832D-08  .593792947803D-01
    -.985339283943D-06  .401059864089D-03  .108126550913D-04  .515369203568D+04
     .432000000000D+05 -.186264514923D-07  .707661736609D-01  .167638063431D-07
     .962137075271D+00  .173218750000D+03  .250431312000D+01 -.784604110482D-08
     .401445293236D-09  .100000000000D+01  .183000000000D+04  .000000000000D+00
     .240000000000D+01  .000000000000D+00  .465661287308D-08  .440000000000D+02
     .360060000000D+05  .400000000000D+01
 7 15  2  1 12  0  0.0  .436581205577D-03  .329691829393D-11  .000000000000D+00
     .250000000000D+02  .103625000000D+03  .394302138552D-08  .309651870952D+01
     .538676977158D-05  .799648452085D-02  .996701419353D-05  .515374126625D+04
     .432000000000D+05 -.577419996262D-07 -.304390044425D+01 -.800937414169D-07
     .971739821687D+00  .193156250000D+03 -.275286860997D+01 -.762317467868D-08
     .146077513286D-09  .100000000000D+01  .183000000000D+04  .000000000000D+00
     .240000000000D+01  .000000000000D+00 -.111758708954D-07  .250000000000D+02
     .360060000000D+05  .400000000000D+01
 8 15  2  1 12  0  0.0  .174199230969D-04  .341060513165D-12  .000000000000D+00
     .420000000000D+02  .121093750000D+03  .347764485787D-08 -.166833477613D+01
     .619888305664D-05  .144098493038D-01  .895932316780D-05  .515355551147D+04
     .432000000000D+05  .949949026108D-07 -.293906729289D+01 -.273808836937D-06
     .995283292333D+00  .226875000000D+03 -.269472261804D+01 -.744495296932D-08
     .371086885830D-09  .100000000000D+01  .183000000000D+04  .000000000000D+00
     .240000000000D+01  .630000000000D+02 -.512227416039D-08  .420000000000D+02
     .360060000000D+05  .400000000000D+01
 9 15  2  1 12  0  0.0 -.733844935894D-04 -.120508047985D-10  .000000000000D+00
     .530000000000D+02 -.204062500000D+02  .456590447396D-08 -.818635268633D+00
    -.110827386379D-05  .339986756444D-03  .888854265213D-05  .515365892220D+04
     .432000000000D+05 -.819563865662D-07  .216420868476D+01  .298023223877D-07
     .958140266045D+00  .206218750000D+03  .223012654895D+01 -.793247327650D-08
    -.585738684082D-09  .100000000000D+01  .183000000000D+04  .000000000000D+00
     .240000000000D+01  .000000000000D+00  .465661287308D-09  .530000000000D+02
     .360060000000D+05  .400000000000D+01
10 15  2  1 12  0  0.0 -.161392148584D-03 -.170530256582D-11  .000000000000D+00
     .620000000000D+02  .128125000000D+02  .551915846653D-08  .671695702525D+00
     .935047864914D-06  .145353344269D-01  .517256557941D-05  .515365004539D+04
     .432000000000D+05 -.115483999252D-06  .112982666995D+01  .126659870148D-06
     .941143707830D+00  .270125000000D+03  .919452623555D+00 -.872429197321D-08
    -.232152527227D-10  .100000000000D+01  .183000000000D+04  .000000000000D+00
     .240000000000D+01  .000000000000D+00 -.325962901115D-08  .620000000000D+02
     .360060000000D+05  .400000000000D+01
11 15  2  1 12  0  0.0 -.554874073714D-03 -.261479726760D-11  .000000000000D+00
     .100000000000D+02 -.705312500000D+02  .577595487742D-08 -.311749348620D+01
    -.371597707272D-05  .156139621977D-01  .104792416096D-04  .515373089409D+04
     .432000000000D+05  .292435288429D-06 -.262860548100D+00 -.121071934700D-06
     .892731662657D+00  .136625000000D+03  .137838642726D+01 -.827141596625D-08
     .230723896291D-09  .100000000000D+01  .183000000000D+04  .000000000000D+00
     .240000000000D+01  .000000000000D+00 -.121071934700D-07  .100000000000D+02
     .360060000000D+05  .400000000000D+01
12 15  2  1 12  0  0.0  .265973154455D-03  .306954461848D-11  .000000000000D+00
     .370000000000D+02  .257812500000D+02  .407124101210D-08  .264141348531D+01
     .137649476528D-05  .522269809153D-02  .169686973095D-05  .515374049759D+04
     .432000000000D+05 -.633299350739D-07 -.197727849160D+01 -.108033418655D-06
     .988963821238D+00  .361312500000D+03  .504685564534D+00 -.808533678673D-08
     .189650756858D-09  .100000000000D+01  .183000000000D+04  .000000000000D+00
     .240000000000D+01  .000000000000D+00 -.125728547573D-07  .370000000000D+02
     .360060000000D+05  .400000000000D+01
13 15  2  1 12  0  0.0 -.841883011162D-04 -.352429196937D-11  .000000000000D+00
     .104000000000D+03 -.600000000000D+01  .403481092321D-08 -.244618972137D+01
    -.344589352608D-06  .535644509364D-02  .970624387264D-05  .515368862724D+04
     .432000000000D+05  .670552253723D-07  .227753308078D+01  .108033418655D-06
     .975032039827D+00  .200593750000D+03  .206591053621D+01 -.761746015493D-08
    -.607525305868D-09  .100000000000D+01  .183000000000D+04  .000000000000D+00
     .340000000000D+01  .000000000000D+00 -.116415321827D-07  .104000000000D+03
     .360060000000D+05  .400000000000D+01
14 15  2  1 12  0  0.0  .914447009563D-04 -.352429196937D-11  .000000000000D+00
     .530000000000D+02 -.471875000000D+01  .437375361297D-08 -.601694184441D+00
    -.251457095146D-06  .772841484286D-02  .966712832451D-05  .515378060341D+04
     .432000000000D+05 -.298023223877D-07  .224370963067D+01  .782310962677D-07
     .967501195028D+00  .198906250000D+03 -.197158890768D+01 -.799497587998D-08
    -.640383817414D-09  .100000000000D+01  .183000000000D+04  .000000000000D+00
     .240000000000D+01  .000000000000D+00 -.931322574615D-08  .530000000000D+02
     .360060000000D+05  .400000000000D+01
15 15  2  1 12  0  0.0 -.229730270803D-03 -.227373675443D-11  .000000000000D+00
     .112000000000D+03 -.166875000000D+02  .513021369399D-08 -.125375733324D+01
    -.927597284317D-06  .706342665944D-02  .828132033348D-05  .515358219910D+04
     .432000000000D+05  .128522515297D-06  .212341648539D+01 -.102445483208D-06
     .934032149982D+00  .205750000000D+03  .370497162523D+00 -.821534220198D-08
    -.548237121991D-09  .100000000000D+01  .183000000000D+04  .000000000000D+00
     .240000000000D+01  .000000000000D+00 -.107102096081D-07  .112000000000D+03
     .360060000000D+05  .400000000000D+01
16 15  2  1 12  0  0.0 -.160087365657D-03  .329691829393D-11  .000000000000D+00
     .500000000000D+02  .270000000000D+02  .412267172583D-08  .508186064172D+00
     .146031379700D-05  .800804095343D-02  .132434070110D-05  .515373844528D+04
     .432000000000D+05  .651925802231D-07 -.195862493581D+01  .115483999252D-06
     .989516129867D+00  .367281250000D+03  .233676082895D+00 -.826891586211D-08
     .121433629627D-09  .100000000000D+01  .183000000000D+04  .000000000000D+00
     .240000000000D+01  .000000000000D+00 -.102445483208D-07  .500000000000D+02
     .360060000000D+05  .400000000000D+01
17 15  2  1 12  0  0.0 -.153408851475D-03 -.227373675443D-11  .000000000000D+00
     .102000000000D+03 -.101750000000D+03  .435089551798D-08 -.422460994316D+00
    -.527873635292D-05  .100474545034D-01  .696629285812D-05  .515371434212D+04
     .432000000000D+05 -.838190317154D-07 -.929828491455D+00  .117346644402D-06
     .971271598664D+00  .254718750000D+03 -.204171457484D+01 -.817819779762D-08
    -.168221292806D-09  .100000000000D+01  .183000000000D+04  .000000000000D+00
     .240000000000D+01  .000000000000D+00 -.107102096081D-07  .102000000000D+03
     .360060000000D+05  .400000000000D+01
18 15  2  1 12  0  0.0  .376428943127D-03  .272848410532D-11  .000000000000D+00
     .820000000000D+02  .143750000000D+02  .592131807524D-08  .106766280570D+01
     .748783349991D-06  .156566809164D-01  .551156699657D-05  .515374812698D+04
     .432000000000D+05 -.277534127235D-06  .110336536238D+01  .558793544769D-07
     .924939907848D+00  .260500000000D+03 -.199256910008D+01 -.893608650959D-08
     .300012496725D-10  .100000000000D+01  .183000000000D+04  .000000000000D+00
     .340000000000D+01  .000000000000D+00 -.111758708954D-07  .820000000000D+02
     .360060000000D+05  .400000000000D+01
19 15  2  1 12  0  0.0 -.498900189996D-03 -.147792889038D-11  .000000000000D+00
     .104000000000D+03 -.124093750000D+03  .428624996809D-08 -.123509300891D+01
    -.647455453873D-05  .109073752537D-01  .718049705029D-05  .515369577408D+04
     .432000000000D+05  .249594449997D-06 -.879823514284D+00 -.121071934700D-06
     .968392123842D+00  .240750000000D+03  .517057135037D+00 -.796926052312D-08
    -.138934358602D-09  .100000000000D+01  .183000000000D+04  .000000000000D+00
     .240000000000D+01  .000000000000D+00 -.149011611938D-07  .104000000000D+03
     .360060000000D+05  .400000000000D+01
20 15  2  1 12  0  0.0  .285000074655D-03  .409272615798D-11  .000000000000D+00
     .700000000000D+02  .182812500000D+02  .580631328483D-08  .101629757219D+01
     .964850187302D-06  .582549616229D-02  .508688390255D-05  .515576351929D+04
     .432000000000D+05 -.109896063805D-06  .105061861048D+01  .670552253723D-07
     .926139436305D+00  .263593750000D+03  .123684139644D+01 -.871714881852D-08
     .186793494985D-09  .100000000000D+01  .183000000000D+04  .000000000000D+00
     .240000000000D+01  .000000000000D+00 -.838190317154D-08  .700000000000D+02
     .360060000000D+05  .400000000000D+01
21 15  2  1 12  0  0.0 -.411925837398D-03 -.420641299570D-11  .000000000000D+00
     .610000000000D+02 -.293437500000D+02  .494092009487D-08  .207520618540D+01
    -.178813934326D-05  .221117613837D-01  .113975256681D-04  .515362609291D+04
     .432000000000D+05  .540167093277D-07  .597057522642D-01 -.484287738800D-06
     .933855025713D+00  .145500000000D+03 -.195307320998D+01 -.788854287519D-08
     .497163566001D-09  .100000000000D+01  .183000000000D+04  .000000000000D+00
     .240000000000D+01  .000000000000D+00 -.116415321827D-07  .610000000000D+02
     .360060000000D+05  .400000000000D+01
